OBJECT_NAME,OBJECT_ID,EPOCH,MEAN_MOTION,ECCENTRICITY,INCLINATION,RA_OF_ASC_NODE,ARG_OF_PERICENTER,MEAN_ANOMALY,EPHEMERIS_TYPE,CLASSIFICATION_TYPE,NORAD_CAT_ID,ELEMENT_SET_NO,REV_AT_EPOCH,BSTAR,MEAN_MOTION_DOT,MEAN_MOTION_DDOT
STARLINK-3342,2022-001P,2026-06-03T05:24:38.617344,15.16958388,.0003841,53.2091,139.7552,72.5880,287.5535,0,U,50816,999,24339,.11687E-2,.2311E-3,0
STARLINK-3341,2022-001Q,2026-06-03T07:06:09.296352,15.08836134,.00018477,53.1835,144.7955,54.2109,305.9054,0,U,50817,999,24333,.4867145E-4,.486E-5,0
STARLINK-3336,2022-001R,2026-06-03T05:04:16.546368,15.08839428,.0001454,53.1823,145.1752,65.3967,294.7176,0,U,50818,999,24331,-.44796E-4,-.1001E-4,0
STARLINK-3327,2022-001S,2026-06-03T06:50:15.709056,15.08822108,.00018393,53.1826,144.8437,91.3952,268.7251,0,U,50819,999,24333,.17846082E-3,.2552E-4,0
STARLINK-3339,2022-001T,2026-06-03T04:48:22.700736,15.08828841,.0002081,53.1836,145.2303,65.1443,294.9764,0,U,50820,999,24331,.64455E-4,.737E-5,0
STARLINK-3346,2022-001U,2026-06-03T05:46:38.470656,15.08838485,.0001337,53.1838,144.9376,86.0879,274.0265,0,U,50821,999,24332,.34287E-4,.258E-5,0
STARLINK-3343,2022-001V,2026-06-03T06:13:07.926528,15.08853065,.00015249,53.1841,144.9673,93.9106,266.2060,0,U,50822,999,24332,.161409E-3,.2283E-4,0
STARLINK-3334,2022-001W,2026-06-03T07:00:51.337440,15.08837648,.00014693,53.1836,144.8006,67.0449,293.0698,0,U,50823,999,24333,.13786973E-4,-.69E-6,0
STARLINK-3332,2022-001Y,2026-06-03T06:18:27.577152,15.08834617,.00015607,53.1833,144.9495,59.3457,300.7688,0,U,50825,999,24332,.34803649E-4,.266E-5,0
STARLINK-3329,2022-001AA,2026-06-03T06:34:21.972288,15.08827662,.00017895,53.1819,144.9000,86.8363,273.2833,0,U,50827,999,24332,.12211513E-3,.1655E-4,0
STARLINK-3290,2022-001AB,2026-06-03T06:14:32.468928,15.08821453,.00009495,53.1830,144.8554,96.9690,263.1410,0,U,50828,999,24317,.61204912E-4,.686E-5,0
STARLINK-3294,2022-001AC,2026-06-03T06:44:57.617088,15.08810311,.00014414,53.1824,144.8655,90.6186,269.4971,0,U,50829,999,24332,.28217421E-3,.4202E-4,0
STARLINK-3278,2022-001AD,2026-06-03T07:10:07.868352,15.08819275,.00017751,53.1815,154.7861,84.1106,276.0088,0,U,50830,999,24319,.12217316E-3,.1656E-4,0
STARLINK-3299,2022-001AE,2026-06-03T05:51:59.896800,15.08827122,.0001957,53.1842,145.0956,56.1823,303.9355,0,U,50831,999,24332,.79224E-5,-.162E-5,0
STARLINK-3328,2022-001AF,2026-06-03T07:11:31.119072,15.08824731,.00017899,53.1816,154.8279,93.8991,266.2206,0,U,50832,999,24319,.99502592E-4,.1295E-4,0
STARLINK-3331,2022-001AH,2026-06-03T05:13:32.678112,15.08838635,.0001312,53.1838,155.1681,92.0765,268.0377,0,U,50834,999,24317,-.2686E-5,-.331E-5,0
STARLINK-3310,2022-001AJ,2026-06-03T06:30:02.043072,15.10109618,.0001846,53.2126,154.8697,45.5671,314.5473,0,U,50835,999,24318,.11296334E-2,.18373E-3,0
STARLINK-3330,2022-001AK,2026-06-03T06:23:46.189248,15.08839746,.00014824,53.1847,154.7052,62.6516,297.4627,0,U,50836,999,24308,.80491238E-4,.993E-5,0
STARLINK-3318,2022-001AL,2026-06-03T13:54:11.425824,15.08833269,.0001362,53.1833,143.5247,64.2503,295.8630,0,U,50837,999,24337,-.42517E-5,-.356E-5,0
STARLINK-3320,2022-001AN,2026-06-03T06:22:25.927968,15.08836416,.00018868,53.1846,154.9342,59.0237,301.0940,0,U,50839,999,24317,.11167101E-3,.1489E-4,0
STARLINK-3295,2022-001AP,2026-06-03T06:17:08.152224,15.08836968,.0001118,53.1849,154.9553,78.0973,282.0144,0,U,50840,999,24317,-.5165358E-5,-.37E-5,0
STARLINK-3300,2022-001AQ,2026-06-03T06:33:01.399968,15.08838756,.00008204,53.1821,154.8978,88.7572,271.3514,0,U,50841,999,24318,.1705016E-4,-.16E-6,0
STARLINK-3302,2022-001AR,2026-06-03T07:47:14.824896,15.08813731,.0001282,53.1839,154.6738,83.0322,277.0816,0,U,50842,999,24318,-.15103753E-3,-.2689E-4,0
STARLINK-3326,2022-001AT,2026-06-03T07:31:29.894016,15.09023321,.0001972,53.1765,154.7255,151.4487,208.6613,0,U,50844,999,24319,-.17758E-2,-.28582E-3,0
STARLINK-3230,2022-001AU,2026-06-03T06:59:31.699968,15.08837225,.00012724,53.1808,154.8157,83.7238,276.3899,0,U,50845,999,24319,-.86700639E-4,-.1667E-4,0
STARLINK-3308,2022-001AV,2026-06-03T07:41:56.528160,15.08835153,.00013658,53.1817,154.7959,87.8637,272.2511,0,U,50846,999,24319,.29426758E-4,.18E-5,0
STARLINK-3315,2022-001AX,2026-06-03T07:20:45.286080,15.08823049,.00018099,53.1834,154.7530,77.1566,282.9628,0,U,50848,999,24319,-.27039383E-4,-.718E-5,0
STARLINK-3311,2022-001AY,2026-06-03T07:36:38.920032,15.08822133,.00014617,53.1836,154.6970,71.5517,288.5634,0,U,50849,999,24319,-.43150798E-4,-.974E-5,0
STARLINK-3312,2022-001AZ,2026-06-03T04:31:09.043104,15.08832598,.0001388,53.1845,115.2804,102.5127,257.6020,0,U,50850,999,24427,.13757E-4,-.69E-6,0
STARLINK-3314,2022-001BA,2026-06-03T05:29:25.761696,15.08831006,.000142,53.1819,155.0212,66.8490,293.2651,0,U,50851,999,24318,.15795E-5,-.263E-5,0
ION SCV-004,2022-002K,2026-06-03T15:13:46.635456,15.30310517,.00085032,97.2835,212.5484,52.4753,307.7260,0,U,50993,999,24322,.20985818E-3,.6084E-4,0
HYPSO-1,2022-002BX,2026-06-03T22:33:37.536192,15.69447816,.00009526,97.2833,235.3588,309.0500,51.0678,0,U,51053,999,24483,.57035941E-3,.67197E-3,0
ETV-A1,2022-002CE,2026-06-03T22:59:21.570720,15.40395279,.00059267,97.2881,221.3036,48.1918,311.9834,0,U,51060,999,24380,.29658472E-3,.11915E-3,0
BRO-5,2022-002CF,2026-06-03T22:13:39.897408,15.46603644,.0004863,97.2999,228.4851,30.0400,330.1128,0,U,51061,999,24420,.62012487E-3,.30883E-3,0
SHIYAN-13 (SY-13),2022-004A,2026-06-03T22:55:07.992768,14.20317109,.06036148,98.4558,175.1097,230.6847,123.9329,0,U,51102,999,22541,.1220657E-3,.1741E-4,0
STARLINK-3366,2022-005A,2026-06-03T12:29:10.883904,15.08908967,.00012769,53.1944,263.7894,73.3087,286.8045,0,U,51104,999,24183,.32167789E-3,.4845E-4,0
STARLINK-3350,2022-005B,2026-06-03T15:03:04.974624,15.08838459,.0001517,53.1828,263.3080,57.0129,303.1008,0,U,51105,999,24185,.72800817E-4,.871E-5,0
STARLINK-3176,2022-005C,2026-06-03T19:17:26.443392,15.08840564,.00012411,53.1837,262.5212,115.3012,244.8108,0,U,51106,999,24187,.1491384E-5,-.264E-5,0
STARLINK-3362,2022-005E,2026-06-03T14:57:46.976832,15.08837742,.00013718,53.1825,263.3229,66.4281,293.6855,0,U,51108,999,24185,.13238064E-4,-.77E-6,0
STARLINK-3358,2022-005F,2026-06-03T13:48:49.680864,15.08897723,.00020706,53.1827,263.5029,156.6051,203.5036,0,U,51109,999,24161,.43053282E-4,.398E-5,0
STARLINK-3344,2022-005G,2026-06-03T14:41:52.837440,15.08833074,.00014327,53.1839,263.3520,70.2134,289.9012,0,U,51110,999,24185,.6050097E-5,-.192E-5,0
STARLINK-3173,2022-005H,2026-06-03T14:10:05.927232,15.08803544,.00013411,53.1820,263.4732,125.7626,234.3490,0,U,51111,999,24184,.26710548E-3,.3962E-4,0
STARLINK-3374,2022-005J,2026-06-03T14:37:57.706752,15.08833499,.00013947,53.1838,263.3573,72.7058,287.4087,0,U,51112,999,24185,.44236603E-4,.416E-5,0
STARLINK-3372,2022-005K,2026-06-03T14:25:59.320992,15.08836851,.00009566,53.1820,263.4289,86.8772,273.2329,0,U,51113,999,24184,.19926623E-4,.29E-6,0
STARLINK-3375,2022-005L,2026-06-03T14:52:29.112960,15.08838111,.00015573,53.1829,263.3423,60.4189,299.6958,0,U,51114,999,24185,.67730636E-4,.79E-5,0
STARLINK-3397,2022-005M,2026-06-03T12:40:00.393312,15.08839381,.00012696,53.1822,263.7594,71.1200,288.9930,0,U,51115,999,24183,.10835951E-4,-.115E-5,0
STARLINK-3243,2022-005N,2026-06-03T12:57:16.458912,15.08832840,.00013885,53.1833,263.6738,88.5624,271.5527,0,U,51116,999,24183,.486765E-4,.487E-5,0
STARLINK-3391,2022-005P,2026-06-03T13:38:16.871712,15.08836036,.00022491,53.1828,263.4748,46.3435,313.7743,0,U,51117,999,24184,.40436561E-4,.355E-5,0
STARLINK-3394,2022-005Q,2026-06-03T12:45:14.684544,15.08880116,.00012286,53.1828,263.7407,63.1704,296.9413,0,U,51118,999,24183,.41736213E-3,.6368E-4,0
STARLINK-3398,2022-005S,2026-06-03T13:39:40.249440,15.08838597,.00012664,53.1835,263.5844,92.6327,267.4810,0,U,51120,999,24184,.42583439E-4,.39E-5,0
STARLINK-3399,2022-005T,2026-06-03T14:00:51.981408,15.08855265,.00009695,53.1808,263.5133,67.4011,292.7084,0,U,51121,999,24184,-.14917715E-3,-.2662E-4,0
STARLINK-3392,2022-005V,2026-06-03T13:32:59.934048,15.08834612,.00011158,53.1841,263.5891,92.5160,267.5959,0,U,51123,999,24184,-.11312782E-4,-.468E-5,0
STARLINK-3389,2022-005W,2026-06-03T14:35:15.228096,15.08838760,.00010431,53.1814,273.3939,99.0857,261.0253,0,U,51124,999,24171,.16959803E-4,-.18E-6,0
STARLINK-3387,2022-005X,2026-06-03T14:20:44.474208,15.08838369,.00017663,53.1857,273.4519,61.3899,298.7270,0,U,51125,999,24169,.29860385E-4,.187E-5,0
STARLINK-3386,2022-005Y,2026-06-03T14:31:20.033472,15.08838783,.00012448,53.1836,273.4214,100.3932,259.7200,0,U,51126,999,24171,.4019151E-4,.352E-5,0
STARLINK-3370,2022-005Z,2026-06-03T14:26:01.290912,15.08851322,.00016766,53.1854,273.4379,73.4450,286.6726,0,U,51127,999,24170,.21702615E-3,.3169E-4,0
STARLINK-3400,2022-005AA,2026-06-03T13:58:10.174080,15.08836684,.00016306,53.1835,273.5118,61.6016,298.5140,0,U,51128,999,24169,.41275352E-4,.369E-5,0
STARLINK-3396,2022-005AB,2026-06-03T14:36:37.853280,15.08851400,.00016213,53.1837,273.3951,73.9332,286.1838,0,U,51129,999,24170,-.15267497E-3,-.2718E-4,0
STARLINK-3395,2022-005AC,2026-06-03T14:14:03.701760,15.08838538,.00011708,53.1845,273.4635,81.8728,278.2396,0,U,51130,999,24169,.47451108E-4,.467E-5,0
STARLINK-3388,2022-005AD,2026-06-03T14:03:27.846144,15.08841961,.00013867,53.1832,273.4922,56.7692,303.3433,0,U,51131,999,24169,.160127E-5,-.263E-5,0
STARLINK-3393,2022-005AE,2026-06-03T12:33:22.753728,15.08845823,.00016668,53.1874,273.7684,54.6074,305.5074,0,U,51132,999,24168,.12693491E-3,.1733E-4,0
STARLINK-3356,2022-005AF,2026-06-03T15:28:15.797856,15.08841124,.00015809,53.1833,273.2247,51.5532,308.5602,0,U,51133,999,24170,-.11673946E-4,-.474E-5,0
STARLINK-3363,2022-005AH,2026-06-03T13:33:05.084352,15.08789469,.00016805,53.1860,273.4871,118.1513,241.9649,0,U,51135,999,24169,-.7437053E-3,-.12089E-3,0
STARLINK-3253,2022-005AJ,2026-06-03T13:21:02.013120,15.08837548,.00012969,53.1822,273.4249,110.1556,249.9575,0,U,51136,999,24169,.57775418E-4,.632E-5,0
